NORAD_CAT_ID,OBJECT_NAME,OBJECT_TYPE,EPOCH,MEAN_MOTION,ECCENTRICITY,INCLINATION,RA_OF_ASC_NODE,ARG_OF_PERICENTER,MEAN_ANOMALY,BSTAR,MEAN_MOTION_DOT,MEAN_MOTION_DDOT,TLE_LINE0,TLE_LINE1,TLE_LINE2,SEMIMAJOR_AXIS,PERIOD,APOGEE,PERIGEE,DECAYED
56817.0,STARLINK-5982,PAYLOAD,2024-06-28 04:01:03,14.98332697,0.0002695,70.0002,106.4174,267.7204,92.3646,-2.9973e-05,-4.51e-06,0.0,0 STARLINK-5982,1 56817U 23078BC  24180.16740670 -.00000451  00000-0 -29973-4 0  9999,2 56817  70.0002 106.4174 0002695 267.7204  92.3646 14.98332697 60144,6950.185,96.107,573.923,570.176,0.0
56817.0,STARLINK-5982,PAYLOAD,2024-06-28 12:01:43,14.98339995,0.0002699,70.0004,105.576,266.6051,93.4799,-6.1271e-05,-8.24e-06,0.0,0 STARLINK-5982,1 56817U 23078BC  24180.50120169 -.00000824  00000-0 -61271-4 0  9993,2 56817  70.0004 105.5760 0002699 266.6051  93.4799 14.98339995 59933,6950.162,96.106,573.903,570.151,0.0
56817.0,STARLINK-5982,PAYLOAD,2024-06-28 20:02:23,14.98338647,0.0002674,70.0001,104.734,263.8358,96.2496,0.0001139,1.267e-05,0.0,0 STARLINK-5982,1 56817U 23078BC  24180.83499673  .00001267  00000-0  11390-3 0  9994,2 56817  70.0001 104.7340 0002674 263.8358  96.2496 14.98338647 60241,6950.166,96.106,573.89,570.173,0.0
56817.0,STARLINK-5982,PAYLOAD,2024-06-28 21:38:31,14.98339321,0.0002656,70.0002,104.5655,264.5399,95.5457,0.00011781,1.313e-05,0.0,0 STARLINK-5982,1 56817U 23078BC  24180.90175591  .00001313  00000-0  11781-3 0  9998,2 56817  70.0002 104.5655 0002656 264.5399  95.5457 14.98339321 59991,6950.164,96.106,573.875,570.183,0.0
56817.0,STARLINK-5982,PAYLOAD,2024-06-29 04:03:03,14.9834638,0.0002566,70.0002,103.8924,263.7247,96.362,0.00019351,2.218e-05,0.0,0 STARLINK-5982,1 56817U 23078BC  24181.16878737  .00002218  00000-0  19351-3 0  9995,2 56817  70.0002 103.8924 0002566 263.7247  96.3620 14.98346380 60294,6950.142,96.106,573.791,570.224,0.0
56817.0,STARLINK-5982,PAYLOAD,2024-06-29 12:03:44,14.98330222,0.0003116,70.0003,103.0507,269.0646,91.0156,1.1928e-05,4.9e-07,0.0,0 STARLINK-5982,1 56817U 23078BC  24181.50259943  .00000049  00000-0  11928-4 0  9998,2 56817  70.0003 103.0507 0003116 269.0646  91.0156 14.98330222 60348,6950.192,96.107,574.223,569.892,0.0
56817.0,STARLINK-5982,PAYLOAD,2024-06-29 20:04:26,14.9831059,0.0002876,70.0002,102.2095,267.6074,92.4756,-0.00018134,-2.255e-05,0.0,0 STARLINK-5982,1 56817U 23078BC  24181.83641956 -.00002255  00000-0 -18134-3 0  9991,2 56817  70.0002 102.2095 0002876 267.6074  92.4756 14.98310590 60393,6950.253,96.108,574.117,570.119,0.0
56817.0,STARLINK-5982,PAYLOAD,2024-06-29 21:40:34,14.98309587,0.0002926,70.0001,102.0412,266.953,93.1294,-0.00018643,-2.316e-05,0.0,0 STARLINK-5982,1 56817U 23078BC  24181.90318085 -.00002316  00000-0 -18643-3 0  9996,2 56817  70.0001 102.0412 0002926 266.9530  93.1294 14.98309587 60140,6950.256,96.108,574.155,570.087,0.0
56817.0,STARLINK-5982,PAYLOAD,2024-06-30 04:05:06,14.98316897,0.0002858,70.0001,101.3679,268.1537,91.9294,-0.00014352,-1.804e-05,0.0,0 STARLINK-5982,1 56817U 23078BC  24182.17021732 -.00001804  00000-0 -14352-3 0  9990,2 56817  70.0001 101.3679 0002858 268.1537  91.9294 14.98316897 60443,6950.233,96.108,574.085,570.112,0.0
56817.0,STARLINK-5982,PAYLOAD,2024-06-30 12:05:46,14.98325829,0.0002941,69.9999,100.526,268.484,91.5982,-8.4615e-05,-1.102e-05,0.0,0 STARLINK-5982,1 56817U 23078BC  24182.50401141 -.00001102  00000-0 -84615-4 0  9994,2 56817  69.9999 100.5260 0002941 268.4840  91.5982 14.98325829 60238,6950.206,96.107,574.115,570.027,0.0
56817.0,STARLINK-5982,PAYLOAD,2024-06-30 20:06:26,14.98333434,0.0002957,69.9999,99.6848,267.844,92.2381,-7.6542e-05,-1.006e-05,0.0,0 STARLINK-5982,1 56817U 23078BC  24182.83780641 -.00001006  00000-0 -76542-4 0  9998,2 56817  69.9999  99.6848 0002957 267.8440  92.2381 14.98333434 60540,6950.182,96.107,574.102,569.992,0.0
56817.0,STARLINK-5982,PAYLOAD,2024-06-30 21:42:34,14.98333473,0.0002968,69.9999,99.5165,267.8082,92.2737,-7.1293e-05,-9.44e-06,0.0,0 STARLINK-5982,1 56817U 23078BC  24182.90456613 -.00000944  00000-0 -71293-4 0  9993,2 56817  69.9999  99.5165 0002968 267.8082  92.2737 14.98333473 60295,6950.182,96.107,574.11,569.984,0.0
56817.0,STARLINK-5982,PAYLOAD,2024-07-01 04:07:05,14.98344379,0.0003048,69.9995,98.8424,269.2271,90.8539,-4.09e-05,-5.81e-06,0.0,0 STARLINK-5982,1 56817U 23078BC  24183.17159713 -.00000581  00000-0 -40900-4 0  9992,2 56817  69.9995  98.8424 0003048 269.2271  90.8539 14.98344379 60591,6950.148,96.106,574.132,569.895,0.0
56817.0,STARLINK-5982,PAYLOAD,2024-07-01 12:07:46,14.98341375,0.000304,69.9997,98.001,269.6919,90.3892,-0.00011773,-1.498e-05,0.0,0 STARLINK-5982,1 56817U 23078BC  24183.50539910 -.00001498  00000-0 -11773-3 0  9993,2 56817  69.9997  98.0010 0003040 269.6919  90.3892 14.98341375 60388,6950.158,96.106,574.136,569.91,0.0
56817.0,STARLINK-5982,PAYLOAD,2024-07-01 20:08:27,14.98315896,0.0003158,69.9995,97.1589,269.7735,90.3062,0.00018932,2.166e-05,0.0,0 STARLINK-5982,1 56817U 23078BC  24183.83920848  .00002166  00000-0  18932-3 0  9998,2 56817  69.9995  97.1589 0003158 269.7735  90.3062 14.98315896 60696,6950.237,96.108,574.296,569.907,0.0
56817.0,STARLINK-5982,PAYLOAD,2024-07-01 21:44:35,14.98313148,0.0003073,69.9995,96.9897,269.8777,90.203,0.00022436,2.584e-05,0.0,0 STARLINK-5982,1 56817U 23078BC  24183.90597020  .00002584  00000-0  22436-3 0  9996,2 56817  69.9995  96.9897 0003073 269.8777  90.2030 14.98313148 60443,6950.245,96.108,574.246,569.974,0.0
56817.0,STARLINK-5982,PAYLOAD,2024-07-02 04:09:07,14.9832311,0.0003061,69.9999,96.3173,269.6626,90.4182,0.00016763,1.907e-05,0.0,0 STARLINK-5982,1 56817U 23078BC  24184.17300669  .00001907  00000-0  16763-3 0  9991,2 56817  69.9999  96.3173 0003061 269.6626  90.4182 14.98323110 60480,6950.214,96.107,574.207,569.952,0.0
56817.0,STARLINK-5982,PAYLOAD,2024-07-02 20:10:28,14.98329025,0.0003081,70.0001,94.634,271.205,88.8756,-9.1391e-06,-2.02e-06,0.0,0 STARLINK-5982,1 56817U 23078BC  24184.84060891 -.00000202  00000-0 -91391-5 0  9996,2 56817  70.0001  94.6340 0003081 271.2050  88.8756 14.98329025 60845,6950.196,96.107,574.202,569.92,0.0
56817.0,STARLINK-5982,PAYLOAD,2024-07-02 21:46:36,14.98329757,0.000307,70.0002,94.4656,271.2825,88.7983,-2.3954e-06,-1.22e-06,0.0,0 STARLINK-5982,1 56817U 23078BC  24184.90736828 -.00000122  00000-0 -23954-5 0  9994,2 56817  70.0002  94.4656 0003070 271.2825  88.7983 14.98329757 60597,6950.194,96.107,574.192,569.925,0.0
56817.0,STARLINK-5982,PAYLOAD,2024-07-03 04:11:08,14.98336667,0.0002954,70.0,93.7923,268.8207,91.2613,5.1218e-05,5.18e-06,0.0,0 STARLINK-5982,1 56817U 23078BC  24185.17440183  .00000518  00000-0  51218-4 0  9990,2 56817  70.0000  93.7923 0002954 268.8207  91.2613 14.98336667 60890,6950.172,96.107,574.09,569.984,0.0
56817.0,STARLINK-5982,PAYLOAD,2024-07-03 20:12:29,14.9832915,0.0002928,70.0001,92.1091,269.6808,90.4016,4.198e-05,4.08e-06,0.0,0 STARLINK-5982,1 56817U 23078BC  24185.84200515  .00000408  00000-0  41980-4 0  9990,2 56817  70.0001  92.1091 0002928 269.6808  90.4016 14.98329150 60995,6950.196,96.107,574.096,570.026,0.0
56817.0,STARLINK-5982,PAYLOAD,2024-07-03 21:48:37,14.98330112,0.0003077,70.0001,91.941,272.1662,87.9145,5.7691e-06,-2.4e-07,0.0,0 STARLINK-5982,1 56817U 23078BC  24185.90876533 -.00000024  00000-0  57691-5 0  9998,2 56817  70.0001  91.9410 0003077 272.1662  87.9145 14.98330112 60747,6950.193,96.107,574.196,569.919,0.0
56817.0,STARLINK-5982,PAYLOAD,2024-07-04 04:13:09,14.98332912,0.0002956,70.0003,91.2679,272.2996,87.7824,8.7239e-05,9.48e-06,0.0,0 STARLINK-5982,1 56817U 23078BC  24186.17580156  .00000948  00000-0  87239-4 0  9995,2 56817  70.0003  91.2679 0002956 272.2996  87.7824 14.98332912 60781,6950.184,96.107,574.103,569.994,0.0
56817.0,STARLINK-5982,PAYLOAD,2024-07-04 20:14:30,14.98330909,0.0002756,70.0003,89.5846,265.0053,95.0791,-1.6145e-05,-2.86e-06,0.0,0 STARLINK-5982,1 56817U 23078BC  24186.84340431 -.00000286  00000-0 -16145-4 0  9994,2 56817  70.0003  89.5846 0002756 265.0053  95.0791 14.98330909 61149,6950.19,96.107,573.971,570.14,0.0
56817.0,STARLINK-5982,PAYLOAD,2024-07-04 21:50:38,14.98330889,0.0002758,70.0002,89.4162,264.9553,95.1291,-1.6282e-05,-2.87e-06,0.0,0 STARLINK-5982,1 56817U 23078BC  24186.91016425 -.00000287  00000-0 -16282-4 0  9998,2 56817  70.0002  89.4162 0002758 264.9553  95.1291 14.98330889 60897,6950.19,96.107,573.972,570.138,0.0
56817.0,STARLINK-5982,PAYLOAD,2024-07-05 10:39:42,14.98334116,0.0002973,69.9996,88.0701,266.6779,93.404,-4.4595e-05,-6.25e-06,0.0,0 STARLINK-5982,1 56817U 23078BC  24187.44424123 -.00000625  00000-0 -44595-4 0  9999,2 56817  69.9996  88.0701 0002973 266.6779  93.4040 14.98334116 60977,6950.18,96.107,574.111,569.979,0.0
56817.0,STARLINK-5982,PAYLOAD,2024-07-05 20:16:31,14.98325828,0.0002845,69.9999,87.0607,267.9146,92.1688,-4.6342e-05,-6.46e-06,0.0,0 STARLINK-5982,1 56817U 23078BC  24187.84480723 -.00000646  00000-0 -46342-4 0  9996,2 56817  69.9999  87.0607 0002845 267.9146  92.1688 14.98325828 61294,6950.206,96.107,574.048,570.093,0.0
56817.0,STARLINK-5982,PAYLOAD,2024-07-05 21:52:39,14.98326032,0.0002734,70.0001,86.8915,266.423,93.6616,-5.315e-05,-7.27e-06,0.0,0 STARLINK-5982,1 56817U 23078BC  24187.91156731 -.00000727  00000-0 -53150-4 0  9998,2 56817  70.0001  86.8915 0002734 266.4230  93.6616 14.98326032 61043,6950.205,96.107,573.97,570.17,0.0
56817.0,STARLINK-5982,PAYLOAD,2024-07-06 10:41:43,14.98339076,0.0003047,70.0,85.5457,259.7831,100.2984,-0.00027077,-3.323e-05,0.0,0 STARLINK-5982,1 56817U 23078BC  24188.44564415 -.00003323  00000-0 -27077-3 0  9992,2 56817  70.0000  85.5457 0003047 259.7831 100.2984 14.98339076 61381,6950.165,96.106,574.148,569.912,0.0
56817.0,STARLINK-5982,PAYLOAD,2024-07-06 21:54:40,14.98326738,0.0002857,69.9999,84.3674,269.7414,90.3418,-4.5291e-05,-6.33e-06,0.0,0 STARLINK-5982,1 56817U 23078BC  24188.91296787 -.00000633  00000-0 -45291-4 0  9998,2 56817  69.9999  84.3674 0002857 269.7414  90.3418 14.98326738 61190,6950.203,96.107,574.054,570.082,0.0
